GLOBALSTAR M001         
1 25162U 98008A   25228.10166243 -.00000070  00000+0  20077-3 0  9999
2 25162  52.0024 158.8372 0001922  24.4391  83.2990 12.38215542251240
GLOBALSTAR M004         
1 25163U 98008B   25227.95219806 -.00000064  00000+0  21880-3 0  9992
2 25163  51.9977 231.8238 0003223  64.6884 308.2952 12.63400280269248
GLOBALSTAR M002         
1 25164U 98008C   25227.88906871 -.00000078  00000+0 -20991-4 0  9999
2 25164  52.0013  90.5119 0000653 277.5745  82.5001 11.61511535191003
GLOBALSTAR M003         
1 25165U 98008D   25227.64868685 -.00000165  00000+0 -80870-3 0  9992
2 25165  51.9999   3.8400 0008662  55.5194 318.1275 12.12066487240436
GLOBALSTAR M014         
1 25306U 98023A   25228.40912263 -.00000091  00000+0 -26293-3 0  9990
2 25306  51.9866  11.1652 0001744 102.9573 290.6140 11.65481407198188
GLOBALSTAR M006         
1 25307U 98023B   25228.36362436 -.00000092  00000+0 -33765-3 0  9990
2 25307  51.9943  66.0017 0002505 202.3983 191.9031 11.58175142223915
GLOBALSTAR M015         
1 25308U 98023C   25228.28022546 -.00000050  00000+0  53434-3 0  9995
2 25308  51.9808 167.4347 0012116 182.1365 333.3958 11.48860740201365
GLOBALSTAR M008         
1 25309U 98023D   25228.38614001 -.00000093  00000+0  26532-4 0  9997
2 25309  51.9990  23.5209 0001954 315.1528  61.3790 12.36071502245609
